NORAD_CAT_ID,OBJECT_NAME,OBJECT_TYPE,EPOCH,MEAN_MOTION,ECCENTRICITY,INCLINATION,RA_OF_ASC_NODE,ARG_OF_PERICENTER,MEAN_ANOMALY,BSTAR,MEAN_MOTION_DOT,MEAN_MOTION_DDOT,TLE_LINE0,TLE_LINE1,TLE_LINE2,SEMIMAJOR_AXIS,PERIOD,APOGEE,PERIGEE,DECAYED
56775.0,STARLINK-6292,PAYLOAD,2024-01-26 00:00:00,15.59518993,0.0003388,69.9995,99.4197,273.8175,310.3667,-0.011924,-0.00868091,0.0,0 STARLINK-6292,1 56775U 23078J   24026.00001157 -.00868091  00000-0 -11924-1 0  9990,2 56775  69.9995  99.4197 0003388 273.8175 310.3667 15.59518993  5997,6767.185,92.336,391.343,386.757,0.0
56775.0,STARLINK-6292,PAYLOAD,2024-01-26 06:00:00,15.59076852,0.0003335,69.9997,98.7281,273.4222,273.6878,-0.012988,-0.00924209,0.0,0 STARLINK-6292,1 56775U 23078J   24026.25001157 -.00924209  00000-0 -12988-1 0  9992,2 56775  69.9997  98.7281 0003335 273.4222 273.6878 15.59076852 37966,6768.465,92.362,392.587,388.072,0.0
56775.0,STARLINK-6292,PAYLOAD,2024-01-26 14:00:01,15.58391376,0.0003442,69.9994,97.8063,279.0307,338.0071,-0.012679,-0.00882946,0.0,0 STARLINK-6292,1 56775U 23078J   24026.58334491 -.00882946  00000-0 -12679-1 0  9996,2 56775  69.9994  97.8063 0003442 279.0307 338.0071 15.58391376  5973,6770.449,92.403,394.645,389.984,0.0
56775.0,STARLINK-6292,PAYLOAD,2024-01-27 06:00:00,15.57122401,0.0003509,69.9991,95.9653,275.4074,119.0904,-0.014084,-0.00930314,0.0,0 STARLINK-6292,1 56775U 23078J   24027.25001157 -.00930314  00000-0 -14084-1 0  9996,2 56775  69.9991  95.9653 0003509 275.4074 119.0904 15.57122401 38124,6774.127,92.478,398.369,393.615,0.0
56775.0,STARLINK-6292,PAYLOAD,2024-01-27 14:00:01,15.56434525,0.0003423,69.9991,95.0461,282.668,179.411,-0.013646,-0.00882932,0.0,0 STARLINK-6292,1 56775U 23078J   24027.58334491 -.00882932  00000-0 -13646-1 0  9997,2 56775  69.9991  95.0461 0003423 282.6680 179.4110 15.56434525  6036,6776.123,92.519,400.307,395.668,0.0
56775.0,STARLINK-6292,PAYLOAD,2024-01-27 22:00:00,15.55793929,0.0003245,69.9987,94.1279,277.88,250.9799,-0.014522,-0.00914343,0.0,0 STARLINK-6292,1 56775U 23078J   24027.91667824 -.00914343  00000-0 -14522-1 0  9999,2 56775  69.9987  94.1279 0003245 277.8800 250.9799 15.55793929  5829,6777.983,92.557,402.047,397.648,0.0
56775.0,STARLINK-6292,PAYLOAD,2024-01-28 14:00:01,15.54480239,0.0003445,69.9984,92.2945,277.9391,22.2031,-0.014715,-0.00885452,0.0,0 STARLINK-6292,1 56775U 23078J   24028.58335648 -.00885452  00000-0 -14715-1 0  9991,2 56775  69.9984  92.2945 0003445 277.9391  22.2031 15.54480239 38330,6781.801,92.635,406.002,401.33,0.0
56775.0,STARLINK-6292,PAYLOAD,2024-01-28 22:00:00,15.53831989,0.0003479,69.9983,91.3788,274.357,90.1586,-0.015484,-0.0090769,0.0,0 STARLINK-6292,1 56775U 23078J   24028.91667824 -.00907690  00000-0 -15484-1 0  9995,2 56775  69.9983  91.3788 0003479 274.3570  90.1586 15.53831989  5975,6783.687,92.674,407.912,403.192,0.0
56775.0,STARLINK-6292,PAYLOAD,2024-01-29 22:00:01,15.51794813,0.0003354,69.9981,88.6374,275.4107,277.798,-0.01279,-0.00702477,0.0,0 STARLINK-6292,1 56775U 23078J   24029.91668981 -.00702477  00000-0 -12790-1 0  9994,2 56775  69.9981  88.6374 0003354 275.4107 277.7980 15.51794813  6023,6789.623,92.796,413.765,409.211,0.0
56775.0,STARLINK-6292,PAYLOAD,2024-01-30 06:00:00,15.51234275,0.0003262,69.9985,87.7257,273.0796,341.3472,-0.00025813,-0.00015303,0.0,0 STARLINK-6292,1 56775U 23078J   24030.25001157 -.00015303  00000-0 -25813-3 0  9996,2 56775  69.9985  87.7257 0003262 273.0796 341.3472 15.51234275 38595,6791.258,92.829,415.339,410.908,0.0
56775.0,STARLINK-6292,PAYLOAD,2024-01-30 14:00:01,15.5120835,0.0003269,69.9985,86.8141,279.6186,35.7233,0.00085458,0.00050323,0.0,0 STARLINK-6292,1 56775U 23078J   24030.58334491  .00050323  00000-0  85458-3 0  9992,2 56775  69.9985  86.8141 0003269 279.6186  35.7233 15.51208350  6037,6791.334,92.831,415.419,410.979,0.0
56775.0,STARLINK-6292,PAYLOAD,2024-01-31 00:00:02,15.51211579,0.0003103,69.9988,85.6749,271.6877,209.8737,-0.00013675,-8.185e-05,0.0,0 STARLINK-6292,1 56775U 23078J   24031.00002315 -.00008185  00000-0 -13675-3 0  9990,2 56775  69.9988  85.6749 0003103 271.6877 209.8737 15.51211579  6037,6791.325,92.831,415.297,411.082,0.0
56775.0,STARLINK-6292,PAYLOAD,2024-01-31 06:00:02,15.51435888,0.0003183,69.9991,84.9913,274.5982,162.6019,-0.015041,-0.00816366,0.0,0 STARLINK-6292,1 56775U 23078J   24031.25002315 -.00816366  00000-0 -15041-1 0  9992,2 56775  69.9991  84.9913 0003183 274.5982 162.6019 15.51435888 38746,6790.67,92.817,414.696,410.373,0.0
56775.0,STARLINK-6292,PAYLOAD,2024-01-31 14:00:01,15.50834748,0.0003351,69.9991,84.0802,278.8858,219.1329,-0.016688,-0.00880401,0.0,0 STARLINK-6292,1 56775U 23078J   24031.58335648 -.00880401  00000-0 -16688-1 0  9995,2 56775  69.9991  84.0802 0003351 278.8858 219.1329 15.50834748 38794,6792.425,92.853,416.566,412.013,0.0
56775.0,STARLINK-6292,PAYLOAD,2024-01-31 22:00:00,15.50168522,0.0003356,69.9993,83.1696,272.807,285.2195,-0.016933,-0.00873061,0.0,0 STARLINK-6292,1 56775U 23078J   24031.91667824 -.00873061  00000-0 -16933-1 0  9993,2 56775  69.9993  83.1696 0003356 272.8070 285.2195 15.50168522  6039,6794.371,92.893,418.516,413.955,0.0
56775.0,STARLINK-6292,PAYLOAD,2024-02-01 06:00:00,15.49568213,0.000348,69.9997,82.2602,270.4305,346.857,-0.018733,-0.00952126,0.0,0 STARLINK-6292,1 56775U 23078J   24032.25001157 -.00952126  00000-0 -18733-1 0  9992,2 56775  69.9997  82.2602 0003480 270.4305 346.8570 15.49568213 38904,6796.125,92.929,420.355,415.625,0.0
56775.0,STARLINK-6292,PAYLOAD,2024-02-01 14:00:01,15.48872667,0.0003596,69.9996,81.3515,276.1948,39.6081,-0.017755,-0.0087436,0.0,0 STARLINK-6292,1 56775U 23078J   24032.58334491 -.00874360  00000-0 -17755-1 0  9994,2 56775  69.9996  81.3515 0003596 276.1948  39.6081 15.48872667  6011,6798.16,92.971,422.469,417.58,0.0
56775.0,STARLINK-6292,PAYLOAD,2024-02-01 22:00:00,15.48207324,0.0003482,69.9995,80.4436,271.9949,101.5327,-0.017991,-0.00866243,0.0,0 STARLINK-6292,1 56775U 23078J   24032.91667824 -.00866243  00000-0 -17991-1 0  9993,2 56775  69.9995  80.4436 0003482 271.9949 101.5327 15.48207324  6069,6800.107,93.011,424.34,419.604,0.0
56775.0,STARLINK-6292,PAYLOAD,2024-02-02 06:00:02,15.47613571,0.0003496,69.9997,79.5369,273.6501,156.8535,-0.020257,-0.00960517,0.0,0 STARLINK-6292,1 56775U 23078J   24033.25002315 -.00960517  00000-0 -20257-1 0  9997,2 56775  69.9997  79.5369 0003496 273.6501 156.8535 15.47613571 39056,6801.846,93.046,426.089,421.333,0.0
56775.0,STARLINK-6292,PAYLOAD,2024-02-02 14:00:01,15.46919319,0.0003395,69.9996,78.6308,279.1383,207.4687,-0.019098,-0.00877975,0.0,0 STARLINK-6292,1 56775U 23078J   24033.58334491 -.00877975  00000-0 -19098-1 0  9992,2 56775  69.9996  78.6308 0003395 279.1383 207.4687 15.46919319  5989,6803.881,93.088,428.056,423.436,0.0
56775.0,STARLINK-6292,PAYLOAD,2024-02-02 22:00:00,15.46248916,0.000323,69.9997,77.726,272.8543,269.1318,-0.019142,-0.0086132,0.0,0 STARLINK-6292,1 56775U 23078J   24033.91667824 -.00861320  00000-0 -19142-1 0  9995,2 56775  69.9997  77.7260 0003230 272.8543 269.1318 15.46248916 39153,6805.848,93.129,429.911,425.515,0.0
56775.0,STARLINK-6292,PAYLOAD,2024-02-03 14:00:01,15.44968699,0.0003458,69.9995,75.9188,277.2955,13.0742,-0.020665,-0.00899359,0.0,0 STARLINK-6292,1 56775U 23078J   24034.58334491 -.00899359  00000-0 -20665-1 0  9995,2 56775  69.9995  75.9188 0003458 277.2955  13.0742 15.44968699 39262,6809.607,93.206,433.827,429.117,0.0
56775.0,STARLINK-6292,PAYLOAD,2024-02-03 22:00:00,15.4429143,0.0003429,69.9997,75.0164,272.4851,70.9193,-0.0204,-0.00869902,0.0,0 STARLINK-6292,1 56775U 23078J   24034.91667824 -.00869902  00000-0 -20400-1 0  9999,2 56775  69.9997  75.0164 0003429 272.4851  70.9193 15.44291430  6032,6811.598,93.247,435.799,431.127,0.0
56775.0,STARLINK-6292,PAYLOAD,2024-02-04 06:00:02,15.4369405,0.0003434,70.0002,74.1151,274.6221,121.068,-0.022936,-0.00951152,0.0,0 STARLINK-6292,1 56775U 23078J   24035.25002315 -.00951152  00000-0 -22936-1 0  9990,2 56775  70.0002  74.1151 0003434 274.6221 121.0680 15.43694050 39364,6813.355,93.283,437.56,432.88,0.0
56775.0,STARLINK-6292,PAYLOAD,2024-02-04 14:00:01,15.43010064,0.0003406,69.9998,73.2144,280.7784,166.3175,-0.022043,-0.00897668,0.0,0 STARLINK-6292,1 56775U 23078J   24035.58334491 -.00897668  00000-0 -22043-1 0  9999,2 56775  69.9998  73.2144 0003406 280.7784 166.3175 15.43010064  5976,6815.368,93.324,439.555,434.912,0.0
56775.0,STARLINK-6292,PAYLOAD,2024-02-04 22:00:00,15.42333902,0.0003281,69.9998,72.3147,273.5221,224.2598,-0.021716,-0.00866895,0.0,0 STARLINK-6292,1 56775U 23078J   24035.91667824 -.00866895  00000-0 -21716-1 0  9999,2 56775  69.9998  72.3147 0003281 273.5221 224.2598 15.42333902 39468,6817.36,93.365,441.462,436.988,0.0
56775.0,STARLINK-6292,PAYLOAD,2024-02-05 00:00:00,15.42175523,0.0003258,69.9997,72.09,270.157,330.1669,-0.021814,-0.00866236,0.0,0 STARLINK-6292,1 56775U 23078J   24036.00001157 -.00866236  00000-0 -21814-1 0  9999,2 56775  69.9997  72.0900 0003258 270.1570 330.1669 15.42175523  6042,6817.827,93.375,441.913,437.471,0.0
56775.0,STARLINK-6292,PAYLOAD,2024-02-05 14:00:01,15.41057108,0.0003264,69.9997,70.5178,277.4325,319.3468,-0.023765,-0.00905715,0.0,0 STARLINK-6292,1 56775U 23078J   24036.58334491 -.00905715  00000-0 -23765-1 0  9995,2 56775  69.9997  70.5178 0003264 277.4325 319.3468 15.41057108 39574,6821.125,93.442,445.217,440.764,0.0
56775.0,STARLINK-6292,PAYLOAD,2024-02-05 22:00:00,15.40376412,0.0003303,69.9998,69.6209,270.8511,14.2682,-0.023136,-0.00865306,0.0,0 STARLINK-6292,1 56775U 23078J   24036.91667824 -.00865306  00000-0 -23136-1 0  9994,2 56775  69.9998  69.6209 0003303 270.8511  14.2682 15.40376412  6021,6823.135,93.484,447.253,442.746,0.0
56775.0,STARLINK-6292,PAYLOAD,2024-02-06 06:00:00,15.39776449,0.0003404,69.9998,68.7247,273.0641,59.5846,-0.025966,-0.00944968,0.0,0 STARLINK-6292,1 56775U 23078J   24037.25001157 -.00944968  00000-0 -25966-1 0  9998,2 56775  69.9998  68.7247 0003404 273.0641  59.5846 15.39776449 39677,6824.907,93.52,449.095,444.449,0.0
